[{"OBJECT_NAME":"STARLINK-6197","OBJECT_ID":"2023-078A","EPOCH":"2026-03-09T22:55:29.940960","MEAN_MOTION":15.17018833,"ECCENTRICITY":0.00072438,"INCLINATION":69.9932,"RA_OF_ASC_NODE":349.0269,"ARG_OF_PERICENTER":212.47,"MEAN_ANOMALY":147.6024,"EPHEMERIS_TYPE":0,"CLASSIFICATION_TYPE":"U","NORAD_CAT_ID":56767,"ELEMENT_SET_NO":999,"REV_AT_EPOCH":15259,"BSTAR":0.00062350917,"MEAN_MOTION_DOT":0.00012272,"MEAN_MOTION_DDOT":0},{"OBJECT_NAME":"FOSSASAT-2E24","OBJECT_ID":"2025-276DV","EPOCH":"2026-03-09T18:37:38.318016","MEAN_MOTION":15.18161624,"ECCENTRICITY":0.000615,"INCLINATION":97.4247,"RA_OF_ASC_NODE":143.9285,"ARG_OF_PERICENTER":111.9769,"MEAN_ANOMALY":248.2119,"EPHEMERIS_TYPE":0,"CLASSIFICATION_TYPE":"U","NORAD_CAT_ID":66780,"ELEMENT_SET_NO":999,"REV_AT_EPOCH":1532,"BSTAR":0.00023488537,"MEAN_MOTION_DOT":4.733e-5,"MEAN_MOTION_DDOT":0}]
